{"type": "FeatureCollection", "features": [ {"type": "Feature", "properties": {"norad_id": 43683, "name": "BEIDOU-3 G1 (C59)", "group": "gnss", "lat": -2.5600878595849754, "lon": 16.506516984584415, "alt_km": 35793.39366510477, "timestamp": "2025-12-04T10:51:50.349288+00:00", "meta": {"OBJECT_NAME": "BEIDOU-3 G1 (C59)", "OBJECT_ID": "2018-085A", "EPOCH": "2025-12-04T04:07:02.935200", "MEAN_MOTION": 1.00273381, "ECCENTRICITY": 0.0002018, "INCLINATION": 2.5846, "RA_OF_ASC_NODE": 103.2219, "ARG_OF_PERICENTER": 64.0221, "MEAN_ANOMALY": 107.8109, "EPHEMERIS_TYPE": 0, "CLASSIFICATION_TYPE": "U", "NORAD_CAT_ID": 43683, "ELEMENT_SET_NO": 999, "REV_AT_EPOCH": 2610, "BSTAR": 0, "MEAN_MOTION_DOT": -2.62e-06, "MEAN_MOTION_DDOT": 0}, "tle": {"line1": "1 43683U 18085A   25338.17156175 -.00000262  00000+0  00000+0 0  9999", "line2": "2 43683   2.5846 103.2219 0002018  64.0221 107.8109  1.00273381 26105"}}, "geometry": {"type": "Point", "coordinates": [16.506516984584415, -2.5600878595849754]}}, {"type": "Feature", "properties": {"norad_id": 43687, "name": "COSMOS 2529 (757)", "group": "gnss", "lat": 9.600028710204146, "lon": -156.15587821501754, "alt_km": 19137.39756218121, "timestamp": "2025-12-04T10:51:50.349300+00:00", "meta": {"OBJECT_NAME": "COSMOS 2529 (757)", "OBJECT_ID": "2018-086A", "EPOCH": "2025-12-03T00:44:36.468960", "MEAN_MOTION": 2.13101888, "ECCENTRICITY": 0.00072932, "INCLINATION": 64.2917, "RA_OF_ASC_NODE": 199.2166, "ARG_OF_PERICENTER": 254.4618, "MEAN_ANOMALY": 105.5545, "EPHEMERIS_TYPE": 0, "CLASSIFICATION_TYPE": "U", "NORAD_CAT_ID": 43687, "ELEMENT_SET_NO": 999, "REV_AT_EPOCH": 5510, "BSTAR": 0, "MEAN_MOTION_DOT": 1.06e-06, "MEAN_MOTION_DDOT": 0}, "tle": {"line1": "1 43687U 18086A   25337.03097765  .00000106  00000+0  00000+0 0  9993", "line2": "2 43687  64.2917 199.2166 0007293 254.4618 105.5545  2.13101888 55102"}}, "geometry": {"type": "Point", "coordinates": [-156.15587821501754, 9.600028710204146]}}, {"type": "Feature", "properties": {"norad_id": 43706, "name": "BEIDOU-3 M17 (C36)", "group": "gnss", "lat": 30.335792922565467, "lon": -146.0755530184892, "alt_km": 21525.276708588168, "timestamp": "2025-12-04T10:51:50.349311+00:00", "meta": {"OBJECT_NAME": "BEIDOU-3 M17 (C36)", "OBJECT_ID": "2018-093A", "EPOCH": "2025-12-03T14:10:37.280064", "MEAN_MOTION": 1.86228161, "ECCENTRICITY": 0.00063465, "INCLINATION": 54.1727, "RA_OF_ASC_NODE": 188.9327, "ARG_OF_PERICENTER": 306.3477, "MEAN_ANOMALY": 234.3147, "EPHEMERIS_TYPE": 0, "CLASSIFICATION_TYPE": "U", "NORAD_CAT_ID": 43706, "ELEMENT_SET_NO": 999, "REV_AT_EPOCH": 4789, "BSTAR": 0, "MEAN_MOTION_DOT": 1.14e-06, "MEAN_MOTION_DDOT": 0}, "tle": {"line1": "1 43706U 18093A   25337.59070926  .00000114  00000+0  00000+0 0  9993", "line2": "2 43706  54.1727 188.9327 0006346 306.3477 234.3147  1.86228161 47892"}}, "geometry": {"type": "Point", "coordinates": [-146.0755530184892, 30.335792922565467]}}, {"type": "Feature", "properties": {"norad_id": 43707, "name": "BEIDOU-3 M18 (C37)", "group": "gnss", "lat": 37.3821343940251, "lon": -24.601999143960178, "alt_km": 21537.550185402837, "timestamp": "2025-12-04T10:51:50.349322+00:00", "meta": {"OBJECT_NAME": "BEIDOU-3 M18 (C37)", "OBJECT_ID": "2018-093B", "EPOCH": "2025-12-03T17:16:21.121824", "MEAN_MOTION": 1.86226418, "ECCENTRICITY": 0.0006364, "INCLINATION": 54.1733, "RA_OF_ASC_NODE": 188.9202, "ARG_OF_PERICENTER": 351.2159, "MEAN_ANOMALY": 8.8675, "EPHEMERIS_TYPE": 0, "CLASSIFICATION_TYPE": "U", "NORAD_CAT_ID": 43707, "ELEMENT_SET_NO": 999, "REV_AT_EPOCH": 4789, "BSTAR": 0, "MEAN_MOTION_DOT": 1.13e-06, "MEAN_MOTION_DDOT": 0}, "tle": {"line1": "1 43707U 18093B   25337.71968891  .00000113  00000+0  00000+0 0  9994", "line2": "2 43707  54.1733 188.9202 0006364 351.2159   8.8675  1.86226418 47891"}}, "geometry": {"type": "Point", "coordinates": [-24.601999143960178, 37.3821343940251]}}, {"type": "Feature", "properties": {"norad_id": 43873, "name": "GPS BIII-1  (PRN 04)", "group": "gnss", "lat": -54.18934266224139, "lon": 28.028956700097975, "alt_km": 20181.802189817885, "timestamp": "2025-12-04T10:51:50.349335+00:00", "meta": {"OBJECT_NAME": "GPS BIII-1  (PRN 04)", "OBJECT_ID": "2018-109A", "EPOCH": "2025-12-02T13:53:48.865056", "MEAN_MOTION": 2.00553145, "ECCENTRICITY": 0.00371805, "INCLINATION": 55.5613, "RA_OF_ASC_NODE": 99.9484, "ARG_OF_PERICENTER": 194.5324, "MEAN_ANOMALY": 172.7169, "EPHEMERIS_TYPE": 0, "CLASSIFICATION_TYPE": "U", "NORAD_CAT_ID": 43873, "ELEMENT_SET_NO": 999, "REV_AT_EPOCH": 5113, "BSTAR": 0, "MEAN_MOTION_DOT": 1e-07, "MEAN_MOTION_DDOT": 0}, "tle": {"line1": "1 43873U 18109A   25336.57903779  .00000010  00000+0  00000+0 0  9999", "line2": "2 43873  55.5613  99.9484 0037180 194.5324 172.7169  2.00553145 51130"}}, "geometry": {"type": "Point", "coordinates": [28.028956700097975, -54.18934266224139]}}, {"type": "Feature", "properties": {"norad_id": 44204, "name": "BEIDOU-3 IGSO-1 (C38)", "group": "gnss", "lat": -40.00622167648399, "lon": 8.682355858338868, "alt_km": 35797.12305403787, "timestamp": "2025-12-04T10:51:50.349347+00:00", "meta": {"OBJECT_NAME": "BEIDOU-3 IGSO-1 (C38)", "OBJECT_ID": "2019-023A", "EPOCH": "2025-11-19T14:15:02.708640", "MEAN_MOTION": 1.00252177, "ECCENTRICITY": 0.0026966, "INCLINATION": 58.4003, "RA_OF_ASC_NODE": 39.8168, "ARG_OF_PERICENTER": 221.2202, "MEAN_ANOMALY": 126.9723, "EPHEMERIS_TYPE": 0, "CLASSIFICATION_TYPE": "U", "NORAD_CAT_ID": 44204, "ELEMENT_SET_NO": 999, "REV_AT_EPOCH": 510, "BSTAR": 0, "MEAN_MOTION_DOT": -2.26e-06, "MEAN_MOTION_DDOT": 0}, "tle": {"line1": "1 44204U 19023A   25323.59378135 -.00000226  00000+0  00000+0 0  9994", "line2": "2 44204  58.4003  39.8168 0026966 221.2202 126.9723  1.00252177  5102"}}, "geometry": {"type": "Point", "coordinates": [8.682355858338868, -40.00622167648399]}}, {"type": "Feature", "properties": {"norad_id": 44231, "name": "BEIDOU-2 G8 (C01)", "group": "gnss", "lat": -1.2971125176420661, "lon": 21.119987152736126, "alt_km": 35765.04629724319, "timestamp": "2025-12-04T10:51:50.349361+00:00", "meta": {"OBJECT_NAME": "BEIDOU-2 G8 (C01)", "OBJECT_ID": "2019-027A", "EPOCH": "2025-12-04T00:17:50.667936", "MEAN_MOTION": 1.00269988, "ECCENTRICITY": 0.0008359, "INCLINATION": 1.6383, "RA_OF_ASC_NODE": 74.7017, "ARG_OF_PERICENTER": 254.7963, "MEAN_ANOMALY": 252.6254, "EPHEMERIS_TYPE": 0, "CLASSIFICATION_TYPE": "U", "NORAD_CAT_ID": 44231, "ELEMENT_SET_NO": 999, "REV_AT_EPOCH": 2412, "BSTAR": 0, "MEAN_MOTION_DOT": -2.31e-06, "MEAN_MOTION_DDOT": 0}, "tle": {"line1": "1 44231U 19027A   25338.01239199 -.00000231  00000+0  00000+0 0  9993", "line2": "2 44231   1.6383  74.7017 0008359 254.7963 252.6254  1.00269988 24122"}}, "geometry": {"type": "Point", "coordinates": [21.119987152736126, -1.2971125176420661]}}, {"type": "Feature", "properties": {"norad_id": 44299, "name": "COSMOS 2534 (758)", "group": "gnss", "lat": 31.14261108176001, "lon": 2.312388990160775, "alt_km": 19143.70633298896, "timestamp": "2025-12-04T10:51:50.349375+00:00", "meta": {"OBJECT_NAME": "COSMOS 2534 (758)", "OBJECT_ID": "2019-030A", "EPOCH": "2025-12-01T03:07:57.438624", "MEAN_MOTION": 2.1310195, "ECCENTRICITY": 0.00091167, "INCLINATION": 64.3652, "RA_OF_ASC_NODE": 199.2842, "ARG_OF_PERICENTER": 283.4428, "MEAN_ANOMALY": 193.0266, "EPHEMERIS_TYPE": 0, "CLASSIFICATION_TYPE": "U", "NORAD_CAT_ID": 44299, "ELEMENT_SET_NO": 999, "REV_AT_EPOCH": 5070, "BSTAR": 0, "MEAN_MOTION_DOT": 9.9e-07, "MEAN_MOTION_DDOT": 0}, "tle": {"line1": "1 44299U 19030A   25335.13052591  .00000099  00000+0  00000+0 0  9991", "line2": "2 44299  64.3652 199.2842 0009116 283.4428 193.0266  2.13101950 50700"}}, "geometry": {"type": "Point", "coordinates": [2.312388990160775, 31.14261108176001]}}, {"type": "Feature", "properties": {"norad_id": 44337, "name": "BEIDOU-3 IGSO-2 (C39)", "group": "gnss", "lat": -12.584364642532407, "lon": -10.493344374003735, "alt_km": 35630.586433834345, "timestamp": "2025-12-04T10:51:50.349387+00:00", "meta": {"OBJECT_NAME": "BEIDOU-3 IGSO-2 (C39)", "OBJECT_ID": "2019-035A", "EPOCH": "2025-12-01T05:17:49.661952", "MEAN_MOTION": 1.00274502, "ECCENTRICITY": 0.00376064, "INCLINATION": 55.2223, "RA_OF_ASC_NODE": 160.6035, "ARG_OF_PERICENTER": 202.2564, "MEAN_ANOMALY": 266.4761, "EPHEMERIS_TYPE": 0, "CLASSIFICATION_TYPE": "U", "NORAD_CAT_ID": 44337, "ELEMENT_SET_NO": 999, "REV_AT_EPOCH": 2368, "BSTAR": 0, "MEAN_MOTION_DOT": -2.5e-07, "MEAN_MOTION_DDOT": 0}, "tle": {"line1": "1 44337U 19035A   25335.22071368 -.00000025  00000+0  00000+0 0  9992", "line2": "2 44337  55.2223 160.6035 0037606 202.2564 266.4761  1.00274502 23688"}}, "geometry": {"type": "Point", "coordinates": [-10.493344374003735, -12.584364642532407]}}, {"type": "Feature", "properties": {"norad_id": 44506, "name": "GPS BIII-2  (PRN 18)", "group": "gnss", "lat": 2.9417924587340405, "lon": 156.87183489894355, "alt_km": 20039.833863020984, "timestamp": "2025-12-04T10:51:50.349399+00:00", "meta": {"OBJECT_NAME": "GPS BIII-2  (PRN 18)", "OBJECT_ID": "2019-056A", "EPOCH": "2025-12-02T10:49:28.764768", "MEAN_MOTION": 2.00565569, "ECCENTRICITY": 0.00578163, "INCLINATION": 55.7251, "RA_OF_ASC_NODE": 338.9617, "ARG_OF_PERICENTER": 198.402, "MEAN_ANOMALY": 332.9603, "EPHEMERIS_TYPE": 0, "CLASSIFICATION_TYPE": "U", "NORAD_CAT_ID": 44506, "ELEMENT_SET_NO": 999, "REV_AT_EPOCH": 4612, "BSTAR": 0, "MEAN_MOTION_DOT": -6.1e-07, "MEAN_MOTION_DDOT": 0}, "tle": {"line1": "1 44506U 19056A   25336.45102737 -.00000061  00000+0  00000+0 0  9994", "line2": "2 44506  55.7251 338.9617 0057816 198.4020 332.9603  2.00565569 46121"}}, "geometry": {"type": "Point", "coordinates": [156.87183489894355, 2.9417924587340405]}}]}